[Satellite]
VERSION=1.1
NAME=IRIDIUM 56 [+]
NICKNAME=IRIDIUM 56 [+]
TLE1=1 25170U 98010B   18020.87335449  .00000174  00000-0  55098-4 0  9990
TLE2=2 25170  86.3960 259.4900 0001898  81.4644 278.6767 14.34221103 42887
